{"fetched_at":"2026-03-30T13:17:50Z","count":15418,"tles":[{"name":"STARLINK-32784","line1":"1 62607U 25008W   26087.68756997  .00089098  00000+0  25748-2 0  9997","line2":"2 62607  42.9968 168.5611 0008037  45.5490 314.6020 15.34620300 68558","category":"Starlink"}]}