{
  "norad_id": 62607,
  "name": "STARLINK-32784",
  "history": [
    {
      "epoch": "2026-03-28T16:30:06.045408",
      "apogee_km": 467.5459976308348,
      "perigee_km": 456.5510833930157,
      "latitude_deg": -40.31382388278855,
      "longitude_deg": 146.70671712001786,
      "semi_major_axis_km": 6840.185540511925,
      "eccentricity": 0.0008037,
      "inclination_deg": 42.9968,
      "raan_deg": 168.5611,
      "arg_perigee_deg": 45.549,
      "mean_anomaly_deg": 314.602,
      "mean_motion_rev_day": 15.346203
    }
  ]
}